{
 "type": "FeatureCollection",
 "name": "study_area",
 "crs": {
  "type": "name",
  "properties": {
   "name": "urn:ogc:def:crs:OGC:1.3:CRS84"
  }
 },
 "features": [
  {
   "type": "Feature",
   "properties": {
    "name": "expanded: Frederick + all Carroll + SE Washington",
    "note": "APPROXIMATE placeholder envelope; replace with county boundary geometry"
   },
   "geometry": {
    "type": "Polygon",
    "coordinates": [
     [
      [
       -77.17,
       39.21
      ],
      [
       -77.69,
       39.21
      ],
      [
       -77.69,
       39.36
      ],
      [
       -77.86,
       39.36
      ],
      [
       -77.86,
       39.58
      ],
      [
       -77.69,
       39.58
      ],
      [
       -77.69,
       39.72
      ],
      [
       -77.31,
       39.72
      ],
      [
       -77.17,
       39.72
      ],
      [
       -76.78,
       39.72
      ],
      [
       -76.78,
       39.3
      ],
      [
       -77.17,
       39.3
      ],
      [
       -77.17,
       39.21
      ]
     ]
    ]
   }
  }
 ]
}